STARLINK-2243
1 18013C 21024AN  21326.09693132  .00003411  00000-0  22862-3 0  3268
2 18013  53.0518 143.3108 0001934  78.1450 302.4955 15.06385814    12
